{"type": "FeatureCollection", "features": [ {"type": "Feature", "properties": {"norad_id": 66490, "name": "STARLINK-35693", "group": "last-30-days", "lat": 22.265313498971356, "lon": -37.3475757738644, "alt_km": 374.6823340509418, "timestamp": "2025-12-05T07:38:17.627688+00:00", "meta": {"OBJECT_NAME": "STARLINK-35693", "OBJECT_ID": "2025-263F", "EPOCH": "2025-12-04T18:00:02.000160", "MEAN_MOTION": 15.66049823, "ECCENTRICITY": 0.0001263, "INCLINATION": 42.9988, "RA_OF_ASC_NODE": 172.1132, "ARG_OF_PERICENTER": 267.7824, "MEAN_ANOMALY": 273.52, "EPHEMERIS_TYPE": 0, "CLASSIFICATION_TYPE": "U", "NORAD_CAT_ID": 66490, "ELEMENT_SET_NO": 999, "REV_AT_EPOCH": 435, "BSTAR": -0.021935, "MEAN_MOTION_DOT": -0.02029572, "MEAN_MOTION_DDOT": 0}, "tle": {"line1": "1 66490U 25263F   25338.75002315 -.02029572  00000+0 -21935-1 0  9996", "line2": "2 66490  42.9988 172.1132 0001263 267.7824 273.5200 15.66049823  4357"}}, "geometry": {"type": "Point", "coordinates": [-37.3475757738644, 22.265313498971356]}}, {"type": "Feature", "properties": {"norad_id": 66491, "name": "STARLINK-35663", "group": "last-30-days", "lat": 19.884931986775847, "lon": -34.13299871861214, "alt_km": 374.98849760028406, "timestamp": "2025-12-05T07:38:17.627698+00:00", "meta": {"OBJECT_NAME": "STARLINK-35663", "OBJECT_ID": "2025-263G", "EPOCH": "2025-12-04T18:00:02.000160", "MEAN_MOTION": 15.66051928, "ECCENTRICITY": 0.0001272, "INCLINATION": 42.9988, "RA_OF_ASC_NODE": 172.1036, "ARG_OF_PERICENTER": 267.2061, "MEAN_ANOMALY": 277.9285, "EPHEMERIS_TYPE": 0, "CLASSIFICATION_TYPE": "U", "NORAD_CAT_ID": 66491, "ELEMENT_SET_NO": 999, "REV_AT_EPOCH": 435, "BSTAR": -0.021957, "MEAN_MOTION_DOT": -0.02031537, "MEAN_MOTION_DDOT": 0}, "tle": {"line1": "1 66491U 25263G   25338.75002315 -.02031537  00000+0 -21957-1 0  9995", "line2": "2 66491  42.9988 172.1036 0001272 267.2061 277.9285 15.66051928  4359"}}, "geometry": {"type": "Point", "coordinates": [-34.13299871861214, 19.884931986775847]}}, {"type": "Feature", "properties": {"norad_id": 66492, "name": "STARLINK-35673", "group": "last-30-days", "lat": 18.673491917303036, "lon": -32.56330833911057, "alt_km": 375.1237376049048, "timestamp": "2025-12-05T07:38:17.627708+00:00", "meta": {"OBJECT_NAME": "STARLINK-35673", "OBJECT_ID": "2025-263H", "EPOCH": "2025-12-04T18:00:02.000160", "MEAN_MOTION": 15.66053011, "ECCENTRICITY": 0.0001314, "INCLINATION": 42.9988, "RA_OF_ASC_NODE": 172.0988, "ARG_OF_PERICENTER": 265.7617, "MEAN_ANOMALY": 281.2882, "EPHEMERIS_TYPE": 0, "CLASSIFICATION_TYPE": "U", "NORAD_CAT_ID": 66492, "ELEMENT_SET_NO": 999, "REV_AT_EPOCH": 435, "BSTAR": -0.021961, "MEAN_MOTION_DOT": -0.02031932, "MEAN_MOTION_DDOT": 0}, "tle": {"line1": "1 66492U 25263H   25338.75002315 -.02031932  00000+0 -21961-1 0  9990", "line2": "2 66492  42.9988 172.0988 0001314 265.7617 281.2882 15.66053011  4358"}}, "geometry": {"type": "Point", "coordinates": [-32.56330833911057, 18.673491917303036]}}, {"type": "Feature", "properties": {"norad_id": 66493, "name": "STARLINK-35597", "group": "last-30-days", "lat": 17.448713112703224, "lon": -31.01566164622081, "alt_km": 375.3353934865754, "timestamp": "2025-12-05T07:38:17.627719+00:00", "meta": {"OBJECT_NAME": "STARLINK-35597", "OBJECT_ID": "2025-263J", "EPOCH": "2025-12-04T18:00:02.000160", "MEAN_MOTION": 15.66052836, "ECCENTRICITY": 0.0001247, "INCLINATION": 42.9988, "RA_OF_ASC_NODE": 172.0939, "ARG_OF_PERICENTER": 268.5393, "MEAN_ANOMALY": 280.4298, "EPHEMERIS_TYPE": 0, "CLASSIFICATION_TYPE": "U", "NORAD_CAT_ID": 66493, "ELEMENT_SET_NO": 999, "REV_AT_EPOCH": 435, "BSTAR": -0.02199, "MEAN_MOTION_DOT": -0.02034221, "MEAN_MOTION_DDOT": 0}, "tle": {"line1": "1 66493U 25263J   25338.75002315 -.02034221  00000+0 -21990-1 0  9997", "line2": "2 66493  42.9988 172.0939 0001247 268.5393 280.4298 15.66052836  4358"}}, "geometry": {"type": "Point", "coordinates": [-31.01566164622081, 17.448713112703224]}}, {"type": "Feature", "properties": {"norad_id": 66494, "name": "STARLINK-35689", "group": "last-30-days", "lat": 21.08433649734128, "lon": -35.72914705310834, "alt_km": 374.8443677806308, "timestamp": "2025-12-05T07:38:17.627729+00:00", "meta": {"OBJECT_NAME": "STARLINK-35689", "OBJECT_ID": "2025-263K", "EPOCH": "2025-12-04T18:00:02.000160", "MEAN_MOTION": 15.66055019, "ECCENTRICITY": 0.0001296, "INCLINATION": 42.9988, "RA_OF_ASC_NODE": 172.1088, "ARG_OF_PERICENTER": 266.9857, "MEAN_ANOMALY": 276.2299, "EPHEMERIS_TYPE": 0, "CLASSIFICATION_TYPE": "U", "NORAD_CAT_ID": 66494, "ELEMENT_SET_NO": 999, "REV_AT_EPOCH": 435, "BSTAR": -0.02201, "MEAN_MOTION_DOT": -0.02035997, "MEAN_MOTION_DDOT": 0}, "tle": {"line1": "1 66494U 25263K   25338.75002315 -.02035997  00000+0 -22010-1 0  9993", "line2": "2 66494  42.9988 172.1088 0001296 266.9857 276.2299 15.66055019  4356"}}, "geometry": {"type": "Point", "coordinates": [-35.72914705310834, 21.08433649734128]}}, {"type": "Feature", "properties": {"norad_id": 66495, "name": "STARLINK-35832", "group": "last-30-days", "lat": 16.21139555555111, "lon": -29.488031254042752, "alt_km": 375.50153190905075, "timestamp": "2025-12-05T07:38:17.627739+00:00", "meta": {"OBJECT_NAME": "STARLINK-35832", "OBJECT_ID": "2025-263L", "EPOCH": "2025-12-04T18:00:02.000160", "MEAN_MOTION": 15.66050578, "ECCENTRICITY": 0.0001265, "INCLINATION": 42.9988, "RA_OF_ASC_NODE": 172.089, "ARG_OF_PERICENTER": 268.8367, "MEAN_ANOMALY": 282.0511, "EPHEMERIS_TYPE": 0, "CLASSIFICATION_TYPE": "U", "NORAD_CAT_ID": 66495, "ELEMENT_SET_NO": 999, "REV_AT_EPOCH": 435, "BSTAR": -0.021957, "MEAN_MOTION_DOT": -0.02031382, "MEAN_MOTION_DDOT": 0}, "tle": {"line1": "1 66495U 25263L   25338.75002315 -.02031382  00000+0 -21957-1 0  9997", "line2": "2 66495  42.9988 172.0890 0001265 268.8367 282.0511 15.66050578  4357"}}, "geometry": {"type": "Point", "coordinates": [-29.488031254042752, 16.21139555555111]}}, {"type": "Feature", "properties": {"norad_id": 66496, "name": "STARLINK-35909", "group": "last-30-days", "lat": 14.965234493385788, "lon": -27.982086169036776, "alt_km": 375.68257617901054, "timestamp": "2025-12-05T07:38:17.627750+00:00", "meta": {"OBJECT_NAME": "STARLINK-35909", "OBJECT_ID": "2025-263M", "EPOCH": "2025-12-04T18:00:02.000160", "MEAN_MOTION": 15.66052735, "ECCENTRICITY": 0.0001325, "INCLINATION": 42.9987, "RA_OF_ASC_NODE": 172.0841, "ARG_OF_PERICENTER": 268.9206, "MEAN_ANOMALY": 283.8821, "EPHEMERIS_TYPE": 0, "CLASSIFICATION_TYPE": "U", "NORAD_CAT_ID": 66496, "ELEMENT_SET_NO": 999, "REV_AT_EPOCH": 435, "BSTAR": -0.021988, "MEAN_MOTION_DOT": -0.02034116, "MEAN_MOTION_DDOT": 0}, "tle": {"line1": "1 66496U 25263M   25338.75002315 -.02034116  00000+0 -21988-1 0  9990", "line2": "2 66496  42.9987 172.0841 0001325 268.9206 283.8821 15.66052735  4353"}}, "geometry": {"type": "Point", "coordinates": [-27.982086169036776, 14.965234493385788]}}, {"type": "Feature", "properties": {"norad_id": 66497, "name": "STARLINK-35899", "group": "last-30-days", "lat": 13.70681807344697, "lon": -26.49118584950538, "alt_km": 375.76217145442206, "timestamp": "2025-12-05T07:38:17.627760+00:00", "meta": {"OBJECT_NAME": "STARLINK-35899", "OBJECT_ID": "2025-263N", "EPOCH": "2025-12-04T18:00:02.000160", "MEAN_MOTION": 15.66052195, "ECCENTRICITY": 0.0001302, "INCLINATION": 42.9988, "RA_OF_ASC_NODE": 172.0787, "ARG_OF_PERICENTER": 266.4204, "MEAN_ANOMALY": 288.2992, "EPHEMERIS_TYPE": 0, "CLASSIFICATION_TYPE": "U", "NORAD_CAT_ID": 66497, "ELEMENT_SET_NO": 999, "REV_AT_EPOCH": 435, "BSTAR": -0.021961, "MEAN_MOTION_DOT": -0.02031849, "MEAN_MOTION_DDOT": 0}, "tle": {"line1": "1 66497U 25263N   25338.75002315 -.02031849  00000+0 -21961-1 0  9992", "line2": "2 66497  42.9988 172.0787 0001302 266.4204 288.2992 15.66052195  4358"}}, "geometry": {"type": "Point", "coordinates": [-26.49118584950538, 13.70681807344697]}}, {"type": "Feature", "properties": {"norad_id": 66498, "name": "STARLINK-35907", "group": "last-30-days", "lat": 12.441569201878792, "lon": -25.017987790149174, "alt_km": 375.9862853890136, "timestamp": "2025-12-05T07:38:17.627772+00:00", "meta": {"OBJECT_NAME": "STARLINK-35907", "OBJECT_ID": "2025-263P", "EPOCH": "2025-12-04T18:00:02.000160", "MEAN_MOTION": 15.66051892, "ECCENTRICITY": 0.0001316, "INCLINATION": 42.9987, "RA_OF_ASC_NODE": 172.0741, "ARG_OF_PERICENTER": 268.7893, "MEAN_ANOMALY": 287.8483, "EPHEMERIS_TYPE": 0, "CLASSIFICATION_TYPE": "U", "NORAD_CAT_ID": 66498, "ELEMENT_SET_NO": 999, "REV_AT_EPOCH": 435, "BSTAR": -0.021979, "MEAN_MOTION_DOT": -0.02033287, "MEAN_MOTION_DDOT": 0}, "tle": {"line1": "1 66498U 25263P   25338.75002315 -.02033287  00000+0 -21979-1 0  9990", "line2": "2 66498  42.9987 172.0741 0001316 268.7893 287.8483 15.66051892  4355"}}, "geometry": {"type": "Point", "coordinates": [-25.017987790149174, 12.441569201878792]}}, {"type": "Feature", "properties": {"norad_id": 66499, "name": "STARLINK-35816", "group": "last-30-days", "lat": 9.885459583279506, "lon": -22.110235537876484, "alt_km": 376.19831031434387, "timestamp": "2025-12-05T07:38:17.627782+00:00", "meta": {"OBJECT_NAME": "STARLINK-35816", "OBJECT_ID": "2025-263Q", "EPOCH": "2025-12-04T18:00:02.000160", "MEAN_MOTION": 15.6605202, "ECCENTRICITY": 0.0001265, "INCLINATION": 42.9987, "RA_OF_ASC_NODE": 172.0647, "ARG_OF_PERICENTER": 265.7019, "MEAN_ANOMALY": 294.7696, "EPHEMERIS_TYPE": 0, "CLASSIFICATION_TYPE": "U", "NORAD_CAT_ID": 66499, "ELEMENT_SET_NO": 999, "REV_AT_EPOCH": 435, "BSTAR": -0.021969, "MEAN_MOTION_DOT": -0.02032471, "MEAN_MOTION_DDOT": 0}, "tle": {"line1": "1 66499U 25263Q   25338.75002315 -.02032471  00000+0 -21969-1 0  9994", "line2": "2 66499  42.9987 172.0647 0001265 265.7019 294.7696 15.66052020  4358"}}, "geometry": {"type": "Point", "coordinates": [-22.110235537876484, 9.885459583279506]}}]}